IRIDIUM 39              
1 25042U 97069D   24129.96350842  .00000797  00000+0  20938-3 0  9996
2 25042  86.3958  24.3349 0016909 209.5583 150.4666 14.47903400390446
IRIDIUM 38              
1 25043U 97069E   24129.79544857  .00000719  00000+0  23498-3 0  9997
2 25043  86.3993  43.2083 0002673  43.4658 316.6749 14.37223112387855
IRIDIUM 42              
1 25077U 97077A   24129.87138243  .00000603  00000+0  20295-3 0  9994
2 25077  86.3991  48.8495 0002428  70.5581 289.5878 14.35526665383171
IRIDIUM 44              
1 25078U 97077B   24129.79751384  .00000702  00000+0  21969-3 0  9992
2 25078  86.3996  31.8956 0000591  47.4928 312.6321 14.39358418385512
IRIDIUM 45              
1 25104U 97082A   24129.80030131  .00012651  00000+0  71768-3 0  9998
2 25104  86.3773 240.7169 0162011  23.4246 337.4259 15.02260783390941
IRIDIUM 24              
1 25105U 97082B   24129.86499038  .00000791  00000+0  23938-3 0  9998
2 25105  86.3910 251.5091 0010533 343.4730  16.6125 14.41129744384969
IRIDIUM 51              
1 25262U 98018A   24129.83112237  .00012095  00000+0  57632-3 0  9990
2 25262  86.3960 250.6365 0146930 328.2799  30.9646 15.09833135385474
